OBJECT_NAME,OBJECT_ID,EPOCH,MEAN_MOTION,ECCENTRICITY,INCLINATION,RA_OF_ASC_NODE,ARG_OF_PERICENTER,MEAN_ANOMALY,EPHEMERIS_TYPE,CLASSIFICATION_TYPE,NORAD_CAT_ID,ELEMENT_SET_NO,REV_AT_EPOCH,BSTAR,MEAN_MOTION_DOT,MEAN_MOTION_DDOT
M2 PATHFINDER,2020-037E,2026-07-19T11:56:57.732288,15.04799066,.00125127,97.8140,32.0952,48.8804,311.3500,0,U,45727,999,33035,.72697321E-4,.963E-5,0
NETSAT-4,2020-068U,2026-07-19T10:56:54.964608,15.44843960,.0005299,97.8610,211.3155,178.1363,181.9905,0,U,46504,999,32075,.20436296E-3,.9489E-4,0
NETSAT-3,2020-068V,2026-07-19T11:40:54.653952,15.43698529,.00043588,97.8662,209.5262,193.4083,166.7048,0,U,46505,999,32066,.22581513E-3,.10094E-3,0
NETSAT-1,2020-068W,2026-07-19T11:15:06.507648,15.35303723,.00027121,97.8761,203.4484,237.4544,122.6437,0,U,46506,999,32025,.19178306E-3,.6485E-4,0
NETSAT-2,2020-068X,2026-07-19T12:18:50.447232,15.47282120,.00027757,97.8621,211.3972,190.7949,169.3240,0,U,46507,999,32073,.27025422E-3,.13683E-3,0
GREENCUBE (IO-117),2022-080E,2026-07-19T05:53:22.496064,6.42583325,.00090857,70.1403,287.0980,282.5487,77.4156,0,U,53109,999,9412,0,-.3E-7,0
SITRO-AIS 5 (KATYS),2023-091L,2026-07-19T13:52:54.896160,15.30119612,.00101806,97.5036,264.7988,356.6065,3.5104,0,U,57176,999,16929,.21051759E-3,.6066E-4,0
SITRO-AIS 6 (CHIRKIN),2023-091AC,2026-07-19T15:12:01.720800,15.26483119,.00107105,97.5046,263.7982,0.8187,359.3067,0,U,57192,999,16923,.19000058E-3,.4889E-4,0
SITRO-AIS 8 (ANOKHIN),2023-091AD,2026-07-19T14:27:55.019232,15.32924109,.00090491,97.5033,266.5473,351.7491,8.3600,0,U,57193,999,16941,.22943821E-3,.7224E-4,0
SITRO-AIS 7 (FARTUSHNIY),2023-091AE,2026-07-19T13:51:55.888416,15.26155346,.00106783,97.5041,263.5501,2.4547,357.6742,0,U,57194,999,16921,.19044593E-3,.4852E-4,0
SITRO-AIS 10 (BURDAEV),2023-091AK,2026-07-19T14:59:07.934496,15.39725960,.00045158,97.5058,271.9671,321.3244,38.7678,0,U,57199,999,16975,.27154133E-3,.10656E-3,0
SITRO-AIS 9 (SHCHUKIN),2023-091AM,2026-07-19T14:18:49.455936,15.39207926,.0004785,97.5056,271.6422,322.0284,38.0623,0,U,57201,999,16973,.2659547E-3,.10259E-3,0
SITRO-AIS 12 (SMIRENNIY),2023-091AQ,2026-07-19T13:56:25.198080,15.39503909,.0004419,97.5070,272.1139,313.8121,46.2758,0,U,57204,999,16975,.27139654E-3,.10573E-3,0
SITRO-AIS 11 (SHEFFER),2023-091AU,2026-07-19T14:02:32.551872,15.39951173,.00043429,97.5068,272.3857,313.1569,46.9313,0,U,57208,999,16977,.27365896E-3,.1082E-3,0
SITRO-AIS 25,2024-039R,2026-07-19T14:26:02.719968,14.93657206,.01431527,95.3889,257.3664,213.9471,145.2534,0,U,59066,999,12956,.10738922E-3,.1353E-4,0
SITRO-AIS 26,2024-039S,2026-07-19T14:34:27.888672,14.93447883,.01434882,95.3890,257.2613,214.5432,144.6408,0,U,59067,999,12955,.97985969E-4,.1225E-4,0
SITRO-AIS 27,2024-039T,2026-07-19T15:14:54.716928,14.93873087,.01426136,95.3894,257.5676,212.9635,146.2640,0,U,59068,999,12958,.14568988E-3,.1857E-4,0
SITRO-AIS 28,2024-039U,2026-07-19T14:41:22.567200,14.93906732,.01424814,95.3893,257.6006,212.8813,146.3490,0,U,59071,999,12958,.10202105E-3,.129E-4,0
GRBBETA,2024-128C,2026-07-19T03:23:12.145920,15.06823469,.00365518,61.9889,104.1391,141.5469,218.8240,0,U,60237,999,11108,.12636319E-3,.1698E-4,0
OOV-CUBE (TUBSAT-30),2024-128F,2026-07-19T11:00:32.618304,15.02883584,.00405598,61.9942,113.0338,140.9471,219.4561,0,U,60240,999,11096,.83259311E-4,.925E-5,0
ROBUSTA-3A (MEDITERRANEE),2024-128J,2026-07-19T09:51:47.611872,15.12020165,.00375429,61.9861,94.2587,134.4661,225.9515,0,U,60243,999,11129,.22134233E-3,.3655E-4,0
LASARSAT,2024-247Q,2026-07-18T22:23:23.875872,15.48202624,.00079764,44.9739,83.5637,189.9528,170.1206,0,U,62391,999,8823,.39367272E-3,.20905E-3,0
CROCUBE,2024-247T,2026-07-18T22:53:00.364416,15.50381393,.00081477,44.9710,80.2241,196.1185,163.9448,0,U,62394,999,8827,.43401259E-3,.24965E-3,0
FORESAIL-1 PRIME,2025-276DS,2026-07-19T03:31:28.170912,15.18956984,.00025565,97.4184,272.8360,36.0771,324.0635,0,U,66778,999,3525,.11612548E-3,.2359E-4,0
KNACKSAT-2,1998-067XZ,2026-07-19T05:22:27.952032,15.62683564,.00081481,51.6273,132.9886,342.4900,17.5813,0,U,67683,999,2528,.37973859E-3,.34381E-3,0
