M2 PATHFINDER           
1 45727U 20037E   26200.49789042  .00000963  00000+0  72697-4 0  9992
2 45727  97.8140  32.0952 0012512  48.8804 311.3500 15.04799066330354
NETSAT-4                
1 46504U 20068U   26200.45619172  .00009489  00000+0  20436-3 0  9997
2 46504  97.8610 211.3155 0005299 178.1363 181.9905 15.44843960320758
NETSAT-3                
1 46505U 20068V   26200.48674368  .00010094  00000+0  22582-3 0  9997
2 46505  97.8662 209.5262 0004358 193.4083 166.7048 15.43698529320665
NETSAT-1                
1 46506U 20068W   26200.46882532  .00006485  00000+0  19178-3 0  9996
2 46506  97.8761 203.4484 0002712 237.4544 122.6437 15.35303723320256
NETSAT-2                
1 46507U 20068X   26200.51308388  .00013683  00000+0  27025-3 0  9993
2 46507  97.8621 211.3972 0002775 190.7949 169.3240 15.47282120320734
GREENCUBE (IO-117)      
1 53109U 22080E   26200.24539926 -.00000003  00000+0  00000+0 0  9992
2 53109  70.1403 287.0980 0009085 282.5487  77.4156  6.42583325 94121
SITRO-AIS 5 (KATYS)     
1 57176U 23091L   26200.57841315  .00006066  00000+0  21052-3 0  9995
2 57176  97.5036 264.7988 0010180 356.6065   3.5104 15.30119612169292
SITRO-AIS 6 (CHIRKIN)   
1 57192U 23091AC  26200.63335325  .00004889  00000+0  19000-3 0  9990
2 57192  97.5046 263.7982 0010710   0.8187 359.3067 15.26483119169231
SITRO-AIS 8 (ANOKHIN)   
1 57193U 23091AD  26200.60272013  .00007224  00000+0  22944-3 0  9999
2 57193  97.5033 266.5473 0009049 351.7491   8.3600 15.32924109169413
SITRO-AIS 7 (FARTUSHNIY)
1 57194U 23091AE  26200.57773019  .00004852  00000+0  19045-3 0  9990
2 57194  97.5041 263.5501 0010678   2.4547 357.6742 15.26155346169211
SITRO-AIS 10 (BURDAEV)  
1 57199U 23091AK  26200.62439739  .00010656  00000+0  27154-3 0  9998
2 57199  97.5058 271.9671 0004515 321.3244  38.7678 15.39725960169758
SITRO-AIS 9 (SHCHUKIN)  
1 57201U 23091AM  26200.59640574  .00010259  00000+0  26595-3 0  9996
2 57201  97.5056 271.6422 0004785 322.0284  38.0623 15.39207926169730
SITRO-AIS 12 (SMIRENNIY)
1 57204U 23091AQ  26200.58084720  .00010573  00000+0  27140-3 0  9999
2 57204  97.5070 272.1139 0004419 313.8121  46.2758 15.39503909169754
SITRO-AIS 11 (SHEFFER)  
1 57208U 23091AU  26200.58509898  .00010820  00000+0  27366-3 0  9996
2 57208  97.5068 272.3857 0004342 313.1569  46.9313 15.39951173169774
SITRO-AIS 25            
1 59066U 24039R   26200.60142037  .00001353  00000+0  10739-3 0  9991
2 59066  95.3889 257.3664 0143152 213.9471 145.2534 14.93657206129566
SITRO-AIS 26            
1 59067U 24039S   26200.60726723  .00001225  00000+0  97986-4 0  9990
2 59067  95.3890 257.2613 0143488 214.5432 144.6408 14.93447883129558
SITRO-AIS 27            
1 59068U 24039T   26200.63535552  .00001857  00000+0  14569-3 0  9998
2 59068  95.3894 257.5676 0142613 212.9635 146.2640 14.93873087129589
SITRO-AIS 28            
1 59071U 24039U   26200.61206675  .00001290  00000+0  10202-3 0  9992
2 59071  95.3893 257.6006 0142481 212.8813 146.3490 14.93906732129588
GRBBETA                 
1 60237U 24128C   26200.14111280  .00001698  00000+0  12636-3 0  9997
2 60237  61.9889 104.1391 0036551 141.5469 218.8240 15.06823469111080
OOV-CUBE (TUBSAT-30)    
1 60240U 24128F   26200.45871086  .00000925  00000+0  83259-4 0  9994
2 60240  61.9942 113.0338 0040559 140.9471 219.4561 15.02883584110962
ROBUSTA-3A (MEDITERRAN*)
1 60243U 24128J   26200.41096773  .00003655  00000+0  22134-3 0  9992
2 60243  61.9861  94.2587 0037542 134.4661 225.9515 15.12020165111295
LASARSAT                
1 62391U 24247Q   26199.93291523  .00020905  00000+0  39367-3 0  9997
2 62391  44.9739  83.5637 0007976 189.9528 170.1206 15.48202624 88234
CROCUBE                 
1 62394U 24247T   26199.95347644  .00024965  00000+0  43401-3 0  9992
2 62394  44.9710  80.2241 0008147 196.1185 163.9448 15.50381393 88277
FORESAIL-1 PRIME        
1 66778U 25276DS  26200.14685383  .00002359  00000+0  11613-3 0  9997
2 66778  97.4184 272.8360 0002556  36.0771 324.0635 15.18956984 35253
KNACKSAT-2              
1 67683U 98067XZ  26200.22393463  .00034381  00000+0  37974-3 0  9993
2 67683  51.6273 132.9886 0008148 342.4900  17.5813 15.62683564 25284
